start=new Date('2022-07-19T00:00:00.000Z').valueOf();
sats=[{"MEAN_MOTION":"15.06395239","COUNTRY_CODE":"US","MEAN_ELEMENT_THEORY":"SGP4","OBJECT_ID":"2020-025D","ARG_OF_PERICENTER":"73.0852","FILE":"3516974","INCLINATION":"53.0544","APOAPSIS":"548.115","ELEMENT_SET_NO":"999","TLE_LINE2":"2 45534  53.0544 317.6661 0001281  73.0852 287.0277 15.06395239124026","OBJECT_TYPE":"PAYLOAD","OBJECT_NAME":"STARLINK-1341","TLE_LINE1":"1 45534U 20025D   22199.58952846  .00001588  00000-0  12550-3 0  9998","RA_OF_ASC_NODE":"317.6661","PERIOD":"95.592","PERIAPSIS":"546.341","SITE":"AFETR","EPHEMERIS_TYPE":"0","CENTER_NAME":"EARTH","ECCENTRICITY":"0.00012810","LAUNCH_DATE":"2020-04-22","SEMIMAJOR_AXIS":"6925.363","MEAN_MOTION_DOT":"0.00001588","EPOCH":"2022-07-18T14:08:55.258944","TIME_SYSTEM":"UTC","MEAN_MOTION_DDOT":"0.0000000000000","MEAN_ANOMALY":"287.0277","NORAD_CAT_ID":"45534","BSTAR":"0.00012550000000","GP_ID":"208380487","CLASSIFICATION_TYPE":"U","REF_FRAME":"TEME","RCS_SIZE":"LARGE","REV_AT_EPOCH":"12402","DECAY_DATE":null},{"MEAN_ANOMALY":"274.2940","NORAD_CAT_ID":"45535","BSTAR":"-0.00010109000000","GP_ID":"208403749","CLASSIFICATION_TYPE":"U","REF_FRAME":"TEME","RCS_SIZE":"LARGE","DECAY_DATE":null,"REV_AT_EPOCH":"12465","PERIOD":"95.592","RA_OF_ASC_NODE":"316.6900","PERIAPSIS":"546.260","EPHEMERIS_TYPE":"0","SITE":"AFETR","CENTER_NAME":"EARTH","LAUNCH_DATE":"2020-04-22","ECCENTRICITY":"0.00013650","SEMIMAJOR_AXIS":"6925.340","TIME_SYSTEM":"UTC","EPOCH":"2022-07-18T19:22:04.617696","MEAN_MOTION_DOT":"-0.00001787","MEAN_MOTION_DDOT":"0.0000000000000","TLE_LINE2":"2 45535  53.0567 316.6900 0001365  85.8205 274.2940 15.06402795124653","TLE_LINE1":"1 45535U 20025E   22199.80699789 -.00001787  00000-0 -10109-3 0  9999","OBJECT_TYPE":"PAYLOAD","OBJECT_NAME":"STARLINK-1350","MEAN_MOTION":"15.06402795","COUNTRY_CODE":"US","FILE":"3517175","ARG_OF_PERICENTER":"85.8205","MEAN_ELEMENT_THEORY":"SGP4","OBJECT_ID":"2020-025E","INCLINATION":"53.0567","APOAPSIS":"548.150","ELEMENT_SET_NO":"999"},{"OBJECT_ID":"2020-025F","MEAN_ELEMENT_THEORY":"SGP4","FILE":"3517175","ARG_OF_PERICENTER":"89.2569","INCLINATION":"53.0551","APOAPSIS":"548.140","ELEMENT_SET_NO":"999","MEAN_MOTION":"15.06400428","COUNTRY_CODE":"US","OBJECT_NAME":"STARLINK-1352","OBJECT_TYPE":"PAYLOAD","TLE_LINE1":"1 45536U 20025F   22199.74432951  .00001534  00000-0  12188-3 0  9996","TLE_LINE2":"2 45536  53.0551 316.9757 0001340  89.2569 270.8573 15.06400428124637","CENTER_NAME":"EARTH","ECCENTRICITY":"0.00013400","LAUNCH_DATE":"2020-04-22","SEMIMAJOR_AXIS":"6925.347","MEAN_MOTION_DOT":"0.00001534","EPOCH":"2022-07-18T17:51:50.069664","TIME_SYSTEM":"UTC","MEAN_MOTION_DDOT":"0.0000000000000","RA_OF_ASC_NODE":"316.9757","PERIOD":"95.592","PERIAPSIS":"546.284","SITE":"AFETR","EPHEMERIS_TYPE":"0","REF_FRAME":"TEME","RCS_SIZE":"LARGE","DECAY_DATE":null,"REV_AT_EPOCH":"12463","MEAN_ANOMALY":"270.8573","NORAD_CAT_ID":"45536","BSTAR":"0.00012188000000","CLASSIFICATION_TYPE":"U","GP_ID":"208404999"},{"APOAPSIS":"490.602","ELEMENT_SET_NO":"999","MEAN_ELEMENT_THEORY":"SGP4","OBJECT_ID":"2020-025G","FILE":"3517175","ARG_OF_PERICENTER":"110.8332","INCLINATION":"52.9750","COUNTRY_CODE":"US","MEAN_MOTION":"15.25448680","OBJECT_TYPE":"PAYLOAD","OBJECT_NAME":"STARLINK-1353","TLE_LINE1":"1 45537U 20025G   22199.82292259  .00013847  00000-0  55268-3 0  9997","TLE_LINE2":"2 45537  52.9750 266.3138 0001691 110.8332 249.2845 15.25448680125328","MEAN_MOTION_DOT":"0.00013847","TIME_SYSTEM":"UTC","EPOCH":"2022-07-18T19:45:00.511776","MEAN_MOTION_DDOT":"0.0000000000000","CENTER_NAME":"EARTH","LAUNCH_DATE":"2020-04-22","SEMIMAJOR_AXIS":"6867.575","ECCENTRICITY":"0.00016910","SITE":"AFETR","EPHEMERIS_TYPE":"0","RA_OF_ASC_NODE":"266.3138","PERIOD":"94.398","PERIAPSIS":"488.279","RCS_SIZE":"LARGE","REF_FRAME":"TEME","REV_AT_EPOCH":"12532","DECAY_DATE":null,"BSTAR":"0.00055268000000","CLASSIFICATION_TYPE":"U","GP_ID":"208405237","MEAN_ANOMALY":"249.2845","NORAD_CAT_ID":"45537"},{"TLE_LINE2":"2 45538  53.0558 316.8657 0001355  75.5021 284.6118 15.06404426124642","TLE_LINE1":"1 45538U 20025H   22199.77012816  .00000016  00000-0  19963-4 0  9998","OBJECT_TYPE":"PAYLOAD","OBJECT_NAME":"STARLINK-1362","MEAN_MOTION":"15.06404426","COUNTRY_CODE":"US","INCLINATION":"53.0558","FILE":"3517175","ARG_OF_PERICENTER":"75.5021","OBJECT_ID":"2020-025H","MEAN_ELEMENT_THEORY":"SGP4","ELEMENT_SET_NO":"999","APOAPSIS":"548.138","NORAD_CAT_ID":"45538","MEAN_ANOMALY":"284.6118","CLASSIFICATION_TYPE":"U","GP_ID":"208403999","BSTAR":"0.00001996300000","DECAY_DATE":null,"REV_AT_EPOCH":"12464","REF_FRAME":"TEME","RCS_SIZE":"LARGE","PERIAPSIS":"546.262","PERIOD":"95.592","RA_OF_ASC_NODE":"316.8657","EPHEMERIS_TYPE":"0","SITE":"AFETR","LAUNCH_DATE":"2020-04-22","ECCENTRICITY":"0.00013550","SEMIMAJOR_AXIS":"6925.335","CENTER_NAME":"EARTH","MEAN_MOTION_DDOT":"0.0000000000000","EPOCH":"2022-07-18T18:28:59.073024","TIME_SYSTEM":"UTC","MEAN_MOTION_DOT":"0.00000016"},{"INCLINATION":"53.0396","ARG_OF_PERICENTER":"114.6146","FILE":"3517175","OBJECT_ID":"2020-025J","MEAN_ELEMENT_THEORY":"SGP4","ELEMENT_SET_NO":"999","APOAPSIS":"318.749","MEAN_MOTION":"15.86760271","COUNTRY_CODE":"US","TLE_LINE1":"1 45539U 20025J   22199.88181367  .00144495  00000-0  54485-3 0  9996","OBJECT_NAME":"STARLINK-1367","OBJECT_TYPE":"PAYLOAD","TLE_LINE2":"2 45539  53.0396  96.3310 0011023 114.6146 245.6027 15.86760271127713","LAUNCH_DATE":"2020-04-22","ECCENTRICITY":"0.00110230","SEMIMAJOR_AXIS":"6689.510","CENTER_NAME":"EARTH","MEAN_MOTION_DDOT":"0.0000000000000","TIME_SYSTEM":"UTC","EPOCH":"2022-07-18T21:09:48.701088","MEAN_MOTION_DOT":"0.00144495","PERIAPSIS":"304.001","PERIOD":"90.751","RA_OF_ASC_NODE":"96.3310","EPHEMERIS_TYPE":"0","SITE":"AFETR","DECAY_DATE":null,"REV_AT_EPOCH":"12771","REF_FRAME":"TEME","RCS_SIZE":"LARGE","NORAD_CAT_ID":"45539","MEAN_ANOMALY":"245.6027","CLASSIFICATION_TYPE":"U","GP_ID":"208404249","BSTAR":"0.00054485000000"},{"TLE_LINE2":"2 45540  53.0568 317.5624 0001240  76.3175 283.7952 15.06387990124619","TLE_LINE1":"1 45540U 20025K   22199.61533235 -.00002362  00000-0 -13981-3 0  9998","OBJECT_NAME":"STARLINK-1368","OBJECT_TYPE":"PAYLOAD","MEAN_MOTION":"15.06387990","COUNTRY_CODE":"US","INCLINATION":"53.0568","FILE":"3516915","ARG_OF_PERICENTER":"76.3175","OBJECT_ID":"2020-025K","MEAN_ELEMENT_THEORY":"SGP4","ELEMENT_SET_NO":"999","APOAPSIS":"548.109","NORAD_CAT_ID":"45540","MEAN_ANOMALY":"283.7952","GP_ID":"208374309","CLASSIFICATION_TYPE":"U","BSTAR":"-0.00013981000000","REV_AT_EPOCH":"12461","DECAY_DATE":null,"REF_FRAME":"TEME","RCS_SIZE":"LARGE","PERIAPSIS":"546.392","PERIOD":"95.593","RA_OF_ASC_NODE":"317.5624","EPHEMERIS_TYPE":"0","SITE":"AFETR","LAUNCH_DATE":"2020-04-22","ECCENTRICITY":"0.00012400","SEMIMAJOR_AXIS":"6925.385","CENTER_NAME":"EARTH","MEAN_MOTION_DDOT":"0.0000000000000","EPOCH":"2022-07-18T14:46:04.715040","TIME_SYSTEM":"UTC","MEAN_MOTION_DOT":"-0.00002362"},{"OBJECT_NAME":"STARLINK-1369","OBJECT_TYPE":"PAYLOAD","TLE_LINE1":"1 45541U 20025L   22199.61900805 -.00002575  00000-0 -15400-3 0  9994","TLE_LINE2":"2 45541  53.0568 317.5330 0001507  66.8940 293.2208 15.06402208124030","ELEMENT_SET_NO":"999","APOAPSIS":"548.250","INCLINATION":"53.0568","MEAN_ELEMENT_THEORY":"SGP4","OBJECT_ID":"2020-025L","ARG_OF_PERICENTER":"66.8940","FILE":"3516953","COUNTRY_CODE":"US","MEAN_MOTION":"15.06402208","REV_AT_EPOCH":"12403","DECAY_DATE":null,"RCS_SIZE":"LARGE","REF_FRAME":"TEME","GP_ID":"208379983","CLASSIFICATION_TYPE":"U","BSTAR":"-0.00015400000000","NORAD_CAT_ID":"45541","MEAN_ANOMALY":"293.2208","MEAN_MOTION_DDOT":"0.0000000000000","MEAN_MOTION_DOT":"-0.00002575","EPOCH":"2022-07-18T14:51:22.295520","TIME_SYSTEM":"UTC","LAUNCH_DATE":"2020-04-22","SEMIMAJOR_AXIS":"6925.342","ECCENTRICITY":"0.00015070","CENTER_NAME":"EARTH","SITE":"AFETR","EPHEMERIS_TYPE":"0","PERIAPSIS":"546.163","RA_OF_ASC_NODE":"317.5330","PERIOD":"95.592"},{"TLE_LINE1":"1 45542U 20025M   22199.58584756 -.00001760  00000-0 -99344-4 0  9999","OBJECT_NAME":"STARLINK-1371","OBJECT_TYPE":"PAYLOAD","TLE_LINE2":"2 45542  53.0558 317.6993 0001312  80.7833 279.3304 15.06383720124024","APOAPSIS":"548.172","ELEMENT_SET_NO":"999","ARG_OF_PERICENTER":"80.7833","FILE":"3517051","OBJECT_ID":"2020-025M","MEAN_ELEMENT_THEORY":"SGP4","INCLINATION":"53.0558","COUNTRY_CODE":"US","MEAN_MOTION":"15.06383720","REF_FRAME":"TEME","RCS_SIZE":"LARGE","REV_AT_EPOCH":"12402","DECAY_DATE":null,"BSTAR":"-0.00009934400000","GP_ID":"208382414","CLASSIFICATION_TYPE":"U","MEAN_ANOMALY":"279.3304","NORAD_CAT_ID":"45542","EPOCH":"2022-07-18T14:03:37.229184","TIME_SYSTEM":"UTC","MEAN_MOTION_DOT":"-0.00001760","MEAN_MOTION_DDOT":"0.0000000000000","CENTER_NAME":"EARTH","LAUNCH_DATE":"2020-04-22","ECCENTRICITY":"0.00013120","SEMIMAJOR_AXIS":"6925.398","EPHEMERIS_TYPE":"0","SITE":"AFETR","PERIOD":"95.593","RA_OF_ASC_NODE":"317.6993","PERIAPSIS":"546.355"},{"NORAD_CAT_ID":"45543","MEAN_ANOMALY":"281.8470","GP_ID":"208403750","CLASSIFICATION_TYPE":"U","BSTAR":"-0.00015362000000","REV_AT_EPOCH":"12374","DECAY_DATE":null,"RCS_SIZE":"LARGE","REF_FRAME":"TEME","PERIAPSIS":"546.005","RA_OF_ASC_NODE":"316.6375","PERIOD":"95.592","SITE":"AFETR","EPHEMERIS_TYPE":"0","LAUNCH_DATE":"2020-04-22","ECCENTRICITY":"0.00017640","SEMIMAJOR_AXIS":"6925.362","CENTER_NAME":"EARTH","MEAN_MOTION_DDOT":"0.0000000000000","MEAN_MOTION_DOT":"-0.00002569","TIME_SYSTEM":"UTC","EPOCH":"2022-07-18T19:43:18.272928","TLE_LINE2":"2 45543  53.0536 316.6375 0001764  78.2716 281.8470 15.06395631123741","OBJECT_NAME":"STARLINK-1372","OBJECT_TYPE":"PAYLOAD","TLE_LINE1":"1 45543U 20025N   22199.82173927 -.00002569  00000-0 -15362-3 0  9996","MEAN_MOTION":"15.06395631","COUNTRY_CODE":"US","INCLINATION":"53.0536","OBJECT_ID":"2020-025N","MEAN_ELEMENT_THEORY":"SGP4","FILE":"3517175","ARG_OF_PERICENTER":"78.2716","ELEMENT_SET_NO":"999","APOAPSIS":"548.449"}];
